{
    "week": 287,
    "satellites": [
        {
            "Name": "COSMOS 2485 (747)",
            "Line1": "1 39155U 13019A   24284.18347888  .00000077  00000+0  00000+0 0  9996",
            "Line2": "2 39155  65.0955  94.2976 0022395 226.3685 133.4800  2.13101776 89177",
            "SatelliteNumber": "39155",
            "Classification": "U",
            "LaunchYear": "13",
            "LaunchNumber": "019",
            "PieceOfLaunch": "A",
            "EpochYear": "24",
            "EpochDay": 284.18347888,
            "FirstDerivativeMeanMotion": 7.7e-07,
            "SecondDerivativeMeanMotion": "00000+0",
            "BSTAR": "00000+0",
            "SetNumber": "999",
            "Inclination": 65.0955,
            "RAAN": 94.2976,
            "Eccentricity": 0.0022395,
            "ArgumentOfPerigee": 226.3685,
            "MeanAnomaly": 133.48,
            "MeanMotion": 2.13101776,
            "RevolutionNumber": "8917"
        },
        {
            "Name": "COSMOS 2492 (754)",
            "Line1": "1 39620U 14012A   24283.20017788 -.00000038  00000+0  00000+0 0  9990",
            "Line2": "2 39620  65.6240 334.7935 0012869 308.9040  51.0527  2.13103185 82115",
            "SatelliteNumber": "39620",
            "Classification": "U",
            "LaunchYear": "14",
            "LaunchNumber": "012",
            "PieceOfLaunch": "A",
            "EpochYear": "24",
            "EpochDay": 283.20017788,
            "FirstDerivativeMeanMotion": -3.8e-07,
            "SecondDerivativeMeanMotion": "00000+0",
            "BSTAR": "00000+0",
            "SetNumber": "999",
            "Inclination": 65.624,
            "RAAN": 334.7935,
            "Eccentricity": 0.0012869,
            "ArgumentOfPerigee": 308.904,
            "MeanAnomaly": 51.0527,
            "MeanMotion": 2.13103185,
            "RevolutionNumber": "8211"
        },
        {
            "Name": "COSMOS 2500 (755)",
            "Line1": "1 40001U 14032A   24284.31654987 -.00000034  00000+0  00000+0 0  9994",
            "Line2": "2 40001  65.5606 334.5520 0008962 211.6898 148.3269  2.13105914 80352",
            "SatelliteNumber": "40001",
            "Classification": "U",
            "LaunchYear": "14",
            "LaunchNumber": "032",
            "PieceOfLaunch": "A",
            "EpochYear": "24",
            "EpochDay": 284.31654987,
            "FirstDerivativeMeanMotion": -3.4e-07,
            "SecondDerivativeMeanMotion": "00000+0",
            "BSTAR": "00000+0",
            "SetNumber": "999",
            "Inclination": 65.5606,
            "RAAN": 334.552,
            "Eccentricity": 0.0008962,
            "ArgumentOfPerigee": 211.6898,
            "MeanAnomaly": 148.3269,
            "MeanMotion": 2.13105914,
            "RevolutionNumber": "8035"
        },
        {
            "Name": "COSMOS 2501 (702K)",
            "Line1": "1 40315U 14075A   24283.16318782  .00000026  00000+0  00000+0 0  9991",
            "Line2": "2 40315  63.6193 211.7162 0020080 208.8259 151.0836  2.13101379 76720",
            "SatelliteNumber": "40315",
            "Classification": "U",
            "LaunchYear": "14",
            "LaunchNumber": "075",
            "PieceOfLaunch": "A",
            "EpochYear": "24",
            "EpochDay": 283.16318782,
            "FirstDerivativeMeanMotion": 2.6e-07,
            "SecondDerivativeMeanMotion": "00000+0",
            "BSTAR": "00000+0",
            "SetNumber": "999",
            "Inclination": 63.6193,
            "RAAN": 211.7162,
            "Eccentricity": 0.002008,
            "ArgumentOfPerigee": 208.8259,
            "MeanAnomaly": 151.0836,
            "MeanMotion": 2.13101379,
            "RevolutionNumber": "7672"
        },
        {
            "Name": "COSMOS 2514 (751)",
            "Line1": "1 41330U 16008A   24283.14606599 -.00000038  00000+0  00000+0 0  9995",
            "Line2": "2 41330  65.3549 334.0721 0012989 215.0058 144.9796  2.13102609 67495",
            "SatelliteNumber": "41330",
            "Classification": "U",
            "LaunchYear": "16",
            "LaunchNumber": "008",
            "PieceOfLaunch": "A",
            "EpochYear": "24",
            "EpochDay": 283.14606599,
            "FirstDerivativeMeanMotion": -3.8e-07,
            "SecondDerivativeMeanMotion": "00000+0",
            "BSTAR": "00000+0",
            "SetNumber": "999",
            "Inclination": 65.3549,
            "RAAN": 334.0721,
            "Eccentricity": 0.0012989,
            "ArgumentOfPerigee": 215.0058,
            "MeanAnomaly": 144.9796,
            "MeanMotion": 2.13102609,
            "RevolutionNumber": "6749"
        },
        {
            "Name": "COSMOS 2522 (752)",
            "Line1": "1 42939U 17055A   24282.98589547  .00000028  00000+0  00000+0 0  9996",
            "Line2": "2 42939  64.0805 212.8782 0008434 239.1305 120.8054  2.13101970 54849",
            "SatelliteNumber": "42939",
            "Classification": "U",
            "LaunchYear": "17",
            "LaunchNumber": "055",
            "PieceOfLaunch": "A",
            "EpochYear": "24",
            "EpochDay": 282.98589547,
            "FirstDerivativeMeanMotion": 2.8e-07,
            "SecondDerivativeMeanMotion": "00000+0",
            "BSTAR": "00000+0",
            "SetNumber": "999",
            "Inclination": 64.0805,
            "RAAN": 212.8782,
            "Eccentricity": 0.0008434,
            "ArgumentOfPerigee": 239.1305,
            "MeanAnomaly": 120.8054,
            "MeanMotion": 2.1310197,
            "RevolutionNumber": "5484"
        },
        {
            "Name": "COSMOS 2527 (756)",
            "Line1": "1 43508U 18053A   24282.94533508  .00000067  00000+0  00000+0 0  9993",
            "Line2": "2 43508  65.2551  94.5149 0007583 213.5654 146.4188  2.13102325 49146",
            "SatelliteNumber": "43508",
            "Classification": "U",
            "LaunchYear": "18",
            "LaunchNumber": "053",
            "PieceOfLaunch": "A",
            "EpochYear": "24",
            "EpochDay": 282.94533508,
            "FirstDerivativeMeanMotion": 6.7e-07,
            "SecondDerivativeMeanMotion": "00000+0",
            "BSTAR": "00000+0",
            "SetNumber": "999",
            "Inclination": 65.2551,
            "RAAN": 94.5149,
            "Eccentricity": 0.0007583,
            "ArgumentOfPerigee": 213.5654,
            "MeanAnomaly": 146.4188,
            "MeanMotion": 2.13102325,
            "RevolutionNumber": "4914"
        },
        {
            "Name": "COSMOS 2529 (757)",
            "Line1": "1 43687U 18086A   24283.04398085  .00000028  00000+0  00000+0 0  9995",
            "Line2": "2 43687  64.2962 213.4196 0009818 260.6785  99.2286  2.13101993 46156",
            "SatelliteNumber": "43687",
            "Classification": "U",
            "LaunchYear": "18",
            "LaunchNumber": "086",
            "PieceOfLaunch": "A",
            "EpochYear": "24",
            "EpochDay": 283.04398085,
            "FirstDerivativeMeanMotion": 2.8e-07,
            "SecondDerivativeMeanMotion": "00000+0",
            "BSTAR": "00000+0",
            "SetNumber": "999",
            "Inclination": 64.2962,
            "RAAN": 213.4196,
            "Eccentricity": 0.0009818,
            "ArgumentOfPerigee": 260.6785,
            "MeanAnomaly": 99.2286,
            "MeanMotion": 2.13101993,
            "RevolutionNumber": "4615"
        },
        {
            "Name": "COSMOS 2534 (758)",
            "Line1": "1 44299U 19030A   24284.51363524  .00000018  00000+0  00000+0 0  9997",
            "Line2": "2 44299  64.3693 213.3341 0011770 282.6543 258.9628  2.13101964 41826",
            "SatelliteNumber": "44299",
            "Classification": "U",
            "LaunchYear": "19",
            "LaunchNumber": "030",
            "PieceOfLaunch": "A",
            "EpochYear": "24",
            "EpochDay": 284.51363524,
            "FirstDerivativeMeanMotion": 1.8e-07,
            "SecondDerivativeMeanMotion": "00000+0",
            "BSTAR": "00000+0",
            "SetNumber": "999",
            "Inclination": 64.3693,
            "RAAN": 213.3341,
            "Eccentricity": 0.001177,
            "ArgumentOfPerigee": 282.6543,
            "MeanAnomaly": 258.9628,
            "MeanMotion": 2.13101964,
            "RevolutionNumber": "4182"
        },
        {
            "Name": "COSMOS 2544 (759)",
            "Line1": "1 44850U 19088A   24283.35873685  .00000070  00000+0  00000+0 0  9996",
            "Line2": "2 44850  65.2420  94.3357 0011571 246.7818 113.1290  2.13102056 37595",
            "SatelliteNumber": "44850",
            "Classification": "U",
            "LaunchYear": "19",
            "LaunchNumber": "088",
            "PieceOfLaunch": "A",
            "EpochYear": "24",
            "EpochDay": 283.35873685,
            "FirstDerivativeMeanMotion": 7e-07,
            "SecondDerivativeMeanMotion": "00000+0",
            "BSTAR": "00000+0",
            "SetNumber": "999",
            "Inclination": 65.242,
            "RAAN": 94.3357,
            "Eccentricity": 0.0011571,
            "ArgumentOfPerigee": 246.7818,
            "MeanAnomaly": 113.129,
            "MeanMotion": 2.13102056,
            "RevolutionNumber": "3759"
        }
    ]
}